SENTINEL-2A             
1 40697U 15028A   20145.76702317 -.00000006  00000-0  14425-4 0  9994
2 40697  98.5694 220.3408 0001200  89.1935 270.9387 14.30816466257072
AVUM R/B                
1 40698U 15028B   20143.91656158  .00000191  00000-0  12774-4 0  9990
2 40698  98.6417  75.8228 0257043 101.3404 261.6811 14.97721346268454
